API VERSION: 1.2
API SOURCE: NASA/JPL Horizons API



*******************************************************************************
Ephemeris / API_USER Sat Jul 11 19:36:37 2026 Pasadena, USA      / Horizons    
*******************************************************************************
Target body name: 2060 Chiron (1977 UB)           {source: JPL#171}
Center body name: Earth (399)                     {source: DE441}
Center-site name: GEOCENTRIC
*******************************************************************************
Start time      : A.D. 1930-Jan-01 00:00:00.0000 UT      
Stop  time      : A.D. 1935-Jan-01 00:00:00.0000 UT      
Step-size       : 2880 minutes
*******************************************************************************
Target pole/equ : undefined
Target radii    : 83. km                                                       
Center geodetic : 0.0, 0.0, -6378.137             {E-lon(deg),Lat(deg),Alt(km)}
Center cylindric: 0.0, 0.0, 0.0                   {E-lon(deg),Dxy(km),Dz(km)}
Center pole/equ : ITRF93                          {East-longitude positive}
Center radii    : 6378.137, 6378.137, 6356.752 km {Equator_a, b, pole_c}       
Target primary  : Sun
Vis. interferer : MOON (R_eq= 1737.400) km        {source: DE441}
Rel. light bend : Sun                             {source: DE441}
Rel. lght bnd GM: 1.3271E+11 km^3/s^2                                          
Small-body perts: Yes                             {source: SB441-N16}
Atmos refraction: NO (AIRLESS)
RA format       : DEG
Time format     : CAL 
Calendar mode   : Mixed Julian/Gregorian
EOP file        : eop.260710.p261006                                           
EOP coverage    : DATA-BASED 1962-JAN-20 TO 2026-JUL-10. PREDICTS-> 2026-OCT-05
Units conversion: 1 au= 149597870.700 km, c= 299792.458 km/s, 1 day= 86400.0 s 
Table cut-offs 1: Elevation (-90.0deg=NO ),Airmass (>38.000=NO), Daylight (NO )
Table cut-offs 2: Solar elongation (  0.0,180.0=NO ),Local Hour Angle( 0.0=NO )
Table cut-offs 3: RA/DEC angular rate (     0.0=NO )                           
*******************************************************************************
Initial IAU76/J2000 heliocentric ecliptic osculating elements (au, days, deg.):
  EPOCH=  2457916.5 ! 2017-Jun-12.00 (TDB)         Residual RMS= .19933        
   EC= .3824171374703196   QR= 8.427522999110739   TP= 2450143.7110841358      
   OM= 209.2011323125998   W=  339.6529896907077   IN= 6.94959060447848        
  Equivalent ICRF heliocentric cartesian coordinates (au, au/d):
   X= 1.843374627977423E+01  Y=-1.877818593473934E+00  Z= 5.548833989583914E-01
  VX= 7.316266023833624E-04 VY= 2.960187278972600E-03 VZ= 9.710586201315230E-04
Asteroid physical parameters (km, seconds, rotational period in hours):        
   GM= n.a.                RAD= 83.                ROTPER= 5.918               
   H= 5.54                 G= .150                 B-V= .704                   
                           ALBEDO= .150            STYP= Cb                    
*******************************************************************************
 Date__(UT)__HR:MN        ObsEcLon    ObsEcLat
**********************************************
$$SOE
 1930-Oct-16 00:00      47.6388333  -2.2104352
 1930-Oct-18 00:00      47.5493151  -2.2153931
 1930-Oct-20 00:00      47.4577683  -2.2202025
 1930-Oct-22 00:00      47.3644098  -2.2248576
 1930-Oct-24 00:00      47.2694670  -2.2293531
 1930-Oct-26 00:00      47.1731093  -2.2336840
 1930-Oct-28 00:00      47.0754653  -2.2378464
 1930-Oct-30 00:00      46.9766701  -2.2418373
 1930-Nov-01 00:00      46.8768827  -2.2456542
 1930-Nov-03 00:00      46.7762870  -2.2492954
 1930-Nov-05 00:00      46.6750868  -2.2527595
 1930-Nov-07 00:00      46.5734933  -2.2560458
 1930-Nov-09 00:00      46.4716959  -2.2591536
 1930-Nov-11 00:00      46.3698371  -2.2620825
 1930-Nov-13 00:00      46.2680283  -2.2648318
 1930-Nov-15 00:00      46.1664058  -2.2674005
 1930-Nov-17 00:00      46.0651739  -2.2697872
 1930-Nov-19 00:00      45.9645844  -2.2719908
 1930-Nov-21 00:00      45.8648693  -2.2740105
 1930-Nov-23 00:00      45.7661998  -2.2758463
 1930-Nov-25 00:00      45.6687123  -2.2774992
 1930-Nov-27 00:00      45.5725517  -2.2789712
 1930-Nov-29 00:00      45.4778858  -2.2802648
 1930-Dec-01 00:00      45.3849011  -2.2813831
 1930-Dec-03 00:00      45.2937946  -2.2823299
 1930-Dec-05 00:00      45.2047589  -2.2831091
 1930-Dec-07 00:00      45.1179508  -2.2837250
 1930-Dec-09 00:00      45.0334683  -2.2841817
 1930-Dec-11 00:00      44.9513864  -2.2844830
 1930-Dec-13 00:00      44.8718293  -2.2846321
 1930-Dec-15 00:00      44.7949872  -2.2846322
 1930-Dec-17 00:00      44.7210635  -2.2844866
 1930-Dec-19 00:00      44.6502162  -2.2841990
 1930-Dec-21 00:00      44.5825472  -2.2837740
 1930-Dec-23 00:00      44.5181332  -2.2832168
 1930-Dec-25 00:00      44.4570610  -2.2825333
 1930-Dec-27 00:00      44.3994379  -2.2817298
 1930-Dec-29 00:00      44.3453849  -2.2808131
 1930-Dec-31 00:00      44.2950249  -2.2797899
 1931-Jan-02 00:00      44.2484661  -2.2786675
 1931-Jan-04 00:00      44.2057730  -2.2774526
 1931-Jan-06 00:00      44.1669477  -2.2761519
 1931-Jan-08 00:00      44.1319828  -2.2747712
 1931-Jan-10 00:00      44.1009427  -2.2733157
 1931-Jan-12 00:00      44.0739503  -2.2717903
 1931-Jan-14 00:00      44.0511084  -2.2702003
 1931-Jan-16 00:00      44.0324615  -2.2685512
 1931-Jan-18 00:00      44.0180102  -2.2668489
 1931-Jan-20 00:00      44.0077443  -2.2651001
 1931-Jan-22 00:00      44.0016675  -2.2633116
 1931-Jan-24 00:00      43.9998035  -2.2614904
 1931-Jan-26 00:00      44.0021862  -2.2596436
 1931-Jan-28 00:00      44.0088459  -2.2577785
 1931-Jan-30 00:00      44.0197916  -2.2559019
 1931-Feb-01 00:00      44.0349869  -2.2540205
 1931-Feb-03 00:00      44.0543409  -2.2521403
 1931-Feb-05 00:00      44.0777709  -2.2502664
 1931-Feb-07 00:00      44.1052821  -2.2484033
 1931-Feb-09 00:00      44.1369262  -2.2465550
 1931-Feb-11 00:00      44.1727085  -2.2447259
 1931-Feb-13 00:00      44.2125733  -2.2429206
 1931-Feb-15 00:00      44.2564390  -2.2411444
 1931-Feb-17 00:00      44.3042285  -2.2394027
 1931-Feb-19 00:00      44.3558835  -2.2377009
 1931-Feb-21 00:00      44.4113652  -2.2360449
 1931-Feb-23 00:00      44.4706426  -2.2344401
 1931-Feb-25 00:00      44.5336760  -2.2328921
 1931-Feb-27 00:00      44.6003992  -2.2314060
 1931-Mar-01 00:00      44.6707038  -2.2299865
 1931-Mar-03 00:00      44.7444432  -2.2286377
 1931-Mar-05 00:00      44.8214985  -2.2273628
 1931-Mar-07 00:00      44.9018434  -2.2261642
 1931-Mar-09 00:00      44.9854812  -2.2250441
 1931-Mar-11 00:00      45.0723499  -2.2240051
 1931-Mar-13 00:00      45.1623316  -2.2230501
 1931-Mar-15 00:00      45.2553009  -2.2221826
 1931-Mar-17 00:00      45.3511499  -2.2214063
 1931-Mar-19 00:00      45.4497931  -2.2207249
 1931-Mar-21 00:00      45.5511621  -2.2201423
 1931-Mar-23 00:00      45.6551931  -2.2196621
 1931-Mar-25 00:00      45.7618072  -2.2192880
 1931-Mar-27 00:00      45.8708940  -2.2190231
 1931-Mar-29 00:00      45.9823062  -2.2188701
 1931-Mar-31 00:00      46.0958807  -2.2188311
 1931-Apr-02 00:00      46.2115007  -2.2189074
 1931-Apr-04 00:00      46.3291330  -2.2190997
 1931-Apr-06 00:00      46.4487526  -2.2194085
 1931-Apr-08 00:00      46.5702596  -2.2198349
 1931-Apr-10 00:00      46.6935075  -2.2203803
 1931-Apr-12 00:00      46.8183586  -2.2210467
 1931-Apr-14 00:00      46.9447015  -2.2218364
 1931-Apr-16 00:00      47.0724477  -2.2227517
 1931-Apr-18 00:00      47.2015227  -2.2237949
 1931-Apr-20 00:00      47.3318509  -2.2249683
 1931-Apr-22 00:00      47.4633347  -2.2262740
 1931-Apr-24 00:00      47.5958399  -2.2277136
 1931-Apr-26 00:00      47.7292034  -2.2292885
 1931-Apr-28 00:00      47.8632722  -2.2309990
 1931-Apr-30 00:00      47.9979536  -2.2328453
 1931-May-02 00:00      48.1332185  -2.2348271
 1931-May-04 00:00      48.2690226  -2.2369445
 1931-May-06 00:00      48.4052466  -2.2391996
 1931-May-08 00:00      48.5417343  -2.2415985
 1931-May-10 00:00      48.6783308  -2.2441419
 1931-May-12 00:00      48.8149463  -2.2467824
 1931-May-14 00:00      48.9515444  -2.2495564
 1931-May-16 00:00      49.0880277  -2.2524817
 1931-May-18 00:00      49.2243115  -2.2555521
 1931-May-20 00:00      49.3602879  -2.2587658
 1931-May-22 00:00      49.4958094  -2.2621222
 1931-May-24 00:00      49.6307122  -2.2656207
 1931-May-26 00:00      49.7648678  -2.2692604
 1931-May-28 00:00      49.8982149  -2.2730398
 1931-May-30 00:00      50.0307276  -2.2769574
 1931-Jun-01 00:00      50.1623430  -2.2810116
 1931-Jun-03 00:00      50.2929325  -2.2852016
 1931-Jun-05 00:00      50.4223491  -2.2895270
 1931-Jun-07 00:00      50.5504742  -2.2939878
 1931-Jun-09 00:00      50.6772215  -2.2985841
 1931-Jun-11 00:00      50.8025233  -2.3033163
 1931-Jun-13 00:00      50.9263151  -2.3081845
 1931-Jun-15 00:00      51.0485188  -2.3131887
 1931-Jun-17 00:00      51.1690214  -2.3183286
 1931-Jun-19 00:00      51.2876689  -2.3236033
 1931-Jun-21 00:00      51.4043079  -2.3290113
 1931-Jun-23 00:00      51.5188446  -2.3345503
 1931-Jun-25 00:00      51.6312486  -2.3402176
 1931-Jun-27 00:00      51.7414939  -2.3460104
 1931-Jun-29 00:00      51.8495029  -2.3519263
 1931-Jul-01 00:00      51.9551486  -2.3579632
 1931-Jul-03 00:00      52.0583021  -2.3641197
 1931-Jul-05 00:00      52.1588671  -2.3703944
 1931-Jul-07 00:00      52.2567781  -2.3767863
 1931-Jul-09 00:00      52.3519835  -2.3832941
 1931-Jul-11 00:00      52.4444298  -2.3899166
 1931-Jul-13 00:00      52.5340448  -2.3966521
 1931-Jul-15 00:00      52.6207186  -2.4034987
 1931-Jul-17 00:00      52.7043050  -2.4104536
 1931-Jul-19 00:00      52.7846770  -2.4175133
 1931-Jul-21 00:00      52.8617872  -2.4246733
 1931-Jul-23 00:00      52.9356383  -2.4319292
 1931-Jul-25 00:00      53.0062073  -2.4392764
 1931-Jul-27 00:00      53.0734152  -2.4467106
 1931-Jul-29 00:00      53.1371548  -2.4542283
